{
  "type": "FeatureCollection",
  "features": [
    {
      "type": "Feature",
      "properties": {
        "norad_id": 33633,
        "name": "FENGYUN 1C DEB",
        "group": "fengyun-1c-debris",
        "lat": -6.511902653438532,
        "lon": 71.38066508262519,
        "alt_km": 891.8736102742832,
        "timestamp": "2025-12-02T07:10:09.402228+00:00",
        "meta_object_name": "FENGYUN 1C DEB",
        "meta_object_id": "1999-025DDS",
        "meta_epoch": "2025-11-16T17:57:06.933888",
        "meta_mean_motion": 14.18965681,
        "meta_eccentricity": 0.00839409,
        "meta_inclination": 99.0586,
        "meta_ra_of_asc_node": 54.4483,
        "meta_arg_of_pericenter": 222.9547,
        "meta_mean_anomaly": 290.5713,
        "meta_ephemeris_type": 0,
        "meta_classification_type": "U",
        "meta_norad_cat_id": 33633,
        "meta_element_set_no": 999,
        "meta_rev_at_epoch": 90342,
        "meta_bstar": 0.003598007,
        "meta_mean_motion_dot": 7.732e-05,
        "meta_mean_motion_ddot": 0,
        "tle_line1": "1 33633U 99025DDS 25320.74799692  .00007732  00000+0  35980-2 0  9993",
        "tle_line2": "2 33633  99.0586  54.4483 0083940 222.9547 290.5713 14.18965681903424"
      },
      "geometry": {
        "type": "Point",
        "coordinates": [
          71.38066508262519,
          -6.511902653438532
        ]
      }
    },
    {
      "type": "Feature",
      "properties": {
        "norad_id": 33637,
        "name": "FENGYUN 1C DEB",
        "group": "fengyun-1c-debris",
        "lat": -61.07641416798667,
        "lon": 37.11356673319439,
        "alt_km": 801.7927907246076,
        "timestamp": "2025-12-02T07:10:09.402238+00:00",
        "meta_object_name": "FENGYUN 1C DEB",
        "meta_object_id": "1999-025DDW",
        "meta_epoch": "2025-11-07T20:41:05.510976",
        "meta_mean_motion": 14.36342314,
        "meta_eccentricity": 0.00819772,
        "meta_inclination": 98.4961,
        "meta_ra_of_asc_node": 357.3147,
        "meta_arg_of_pericenter": 254.865,
        "meta_mean_anomaly": 104.3457,
        "meta_ephemeris_type": 0,
        "meta_classification_type": "U",
        "meta_norad_cat_id": 33637,
        "meta_element_set_no": 999,
        "meta_rev_at_epoch": 64337,
        "meta_bstar": 0.0017800141,
        "meta_mean_motion_dot": 5.37e-05,
        "meta_mean_motion_ddot": 0,
        "tle_line1": "1 33637U 99025DDW 25311.86186934  .00005370  00000+0  17800-2 0  9996",
        "tle_line2": "2 33637  98.4961 357.3147 0081977 254.8650 104.3457 14.36342314643371"
      },
      "geometry": {
        "type": "Point",
        "coordinates": [
          37.11356673319439,
          -61.07641416798667
        ]
      }
    },
    {
      "type": "Feature",
      "properties": {
        "norad_id": 33638,
        "name": "FENGYUN 1C DEB",
        "group": "fengyun-1c-debris",
        "lat": 78.93416415427565,
        "lon": 178.64979588489857,
        "alt_km": 1147.406044021719,
        "timestamp": "2025-12-02T07:10:09.402248+00:00",
        "meta_object_name": "FENGYUN 1C DEB",
        "meta_object_id": "1999-025DDX",
        "meta_epoch": "2025-12-01T13:13:33.178944",
        "meta_mean_motion": 13.69256804,
        "meta_eccentricity": 0.02658611,
        "meta_inclination": 98.4646,
        "meta_ra_of_asc_node": 227.5799,
        "meta_arg_of_pericenter": 302.8995,
        "meta_mean_anomaly": 54.6828,
        "meta_ephemeris_type": 0,
        "meta_classification_type": "U",
        "meta_norad_cat_id": 33638,
        "meta_element_set_no": 999,
        "meta_rev_at_epoch": 60762,
        "meta_bstar": 0.0015515248,
        "meta_mean_motion_dot": 1.686e-05,
        "meta_mean_motion_ddot": 0,
        "tle_line1": "1 33638U 99025DDX 25335.55107846  .00001686  00000+0  15515-2 0  9991",
        "tle_line2": "2 33638  98.4646 227.5799 0265861 302.8995  54.6828 13.69256804607625"
      },
      "geometry": {
        "type": "Point",
        "coordinates": [
          178.64979588489857,
          78.93416415427565
        ]
      }
    },
    {
      "type": "Feature",
      "properties": {
        "norad_id": 33639,
        "name": "FENGYUN 1C DEB",
        "group": "fengyun-1c-debris",
        "lat": -53.59705447861356,
        "lon": -124.91338408385707,
        "alt_km": 762.221236100766,
        "timestamp": "2025-12-02T07:10:09.402258+00:00",
        "meta_object_name": "FENGYUN 1C DEB",
        "meta_object_id": "1999-025DDY",
        "meta_epoch": "2025-11-29T11:23:00.512736",
        "meta_mean_motion": 14.40164015,
        "meta_eccentricity": 0.00492272,
        "meta_inclination": 98.7122,
        "meta_ra_of_asc_node": 64.2163,
        "meta_arg_of_pericenter": 328.9041,
        "meta_mean_anomaly": 30.9235,
        "meta_ephemeris_type": 0,
        "meta_classification_type": "U",
        "meta_norad_cat_id": 33639,
        "meta_element_set_no": 999,
        "meta_rev_at_epoch": 60391,
        "meta_bstar": 0.0019761745,
        "meta_mean_motion_dot": 6.293e-05,
        "meta_mean_motion_ddot": 0,
        "tle_line1": "1 33639U 99025DDY 25333.47431149  .00006293  00000+0  19762-2 0  9994",
        "tle_line2": "2 33639  98.7122  64.2163 0049227 328.9041  30.9235 14.40164015603915"
      },
      "geometry": {
        "type": "Point",
        "coordinates": [
          -124.91338408385707,
          -53.59705447861356
        ]
      }
    },
    {
      "type": "Feature",
      "properties": {
        "norad_id": 33640,
        "name": "FENGYUN 1C DEB",
        "group": "fengyun-1c-debris",
        "lat": -34.907622996129156,
        "lon": 92.38037684197586,
        "alt_km": 686.9451832472241,
        "timestamp": "2025-12-02T07:10:09.402268+00:00",
        "meta_object_name": "FENGYUN 1C DEB",
        "meta_object_id": "1999-025DDZ",
        "meta_epoch": "2025-12-01T13:34:06.359232",
        "meta_mean_motion": 14.45829274,
        "meta_eccentricity": 0.00901155,
        "meta_inclination": 98.839,
        "meta_ra_of_asc_node": 277.8502,
        "meta_arg_of_pericenter": 193.1847,
        "meta_mean_anomaly": 166.6987,
        "meta_ephemeris_type": 0,
        "meta_classification_type": "U",
        "meta_norad_cat_id": 33640,
        "meta_element_set_no": 999,
        "meta_rev_at_epoch": 92181,
        "meta_bstar": 0.00050928251,
        "meta_mean_motion_dot": 1.849e-05,
        "meta_mean_motion_ddot": 0,
        "tle_line1": "1 33640U 99025DDZ 25335.56535138  .00001849  00000+0  50928-3 0  9993",
        "tle_line2": "2 33640  98.8390 277.8502 0090115 193.1847 166.6987 14.45829274921815"
      },
      "geometry": {
        "type": "Point",
        "coordinates": [
          92.38037684197586,
          -34.907622996129156
        ]
      }
    },
    {
      "type": "Feature",
      "properties": {
        "norad_id": 33648,
        "name": "FENGYUN 1C DEB",
        "group": "fengyun-1c-debris",
        "lat": -18.282417564055542,
        "lon": -21.81489998705192,
        "alt_km": 894.6897268824823,
        "timestamp": "2025-12-02T07:10:09.402279+00:00",
        "meta_object_name": "FENGYUN 1C DEB",
        "meta_object_id": "1999-025DEH",
        "meta_epoch": "2025-12-01T19:21:03.617568",
        "meta_mean_motion": 14.11767445,
        "meta_eccentricity": 0.0068355,
        "meta_inclination": 98.7193,
        "meta_ra_of_asc_node": 334.8003,
        "meta_arg_of_pericenter": 205.3153,
        "meta_mean_anomaly": 154.4664,
        "meta_ephemeris_type": 0,
        "meta_classification_type": "U",
        "meta_norad_cat_id": 33648,
        "meta_element_set_no": 999,
        "meta_rev_at_epoch": 64222,
        "meta_bstar": 0.00013911,
        "meta_mean_motion_dot": 2.16e-06,
        "meta_mean_motion_ddot": 0,
        "tle_line1": "1 33648U 99025DEH 25335.80629187  .00000216  00000+0  13911-3 0  9994",
        "tle_line2": "2 33648  98.7193 334.8003 0068355 205.3153 154.4664 14.11767445642226"
      },
      "geometry": {
        "type": "Point",
        "coordinates": [
          -21.81489998705192,
          -18.282417564055542
        ]
      }
    },
    {
      "type": "Feature",
      "properties": {
        "norad_id": 33650,
        "name": "FENGYUN 1C DEB",
        "group": "fengyun-1c-debris",
        "lat": -68.5279272841979,
        "lon": -61.99416243464998,
        "alt_km": 1025.8350414261567,
        "timestamp": "2025-12-02T07:10:09.402289+00:00",
        "meta_object_name": "FENGYUN 1C DEB",
        "meta_object_id": "1999-025DEK",
        "meta_epoch": "2025-11-29T05:22:43.300128",
        "meta_mean_motion": 13.89153147,
        "meta_eccentricity": 0.01505018,
        "meta_inclination": 98.9878,
        "meta_ra_of_asc_node": 138.7642,
        "meta_arg_of_pericenter": 115.9177,
        "meta_mean_anomaly": 245.7581,
        "meta_ephemeris_type": 0,
        "meta_classification_type": "U",
        "meta_norad_cat_id": 33650,
        "meta_element_set_no": 999,
        "meta_rev_at_epoch": 68621,
        "meta_bstar": 0.00077422425,
        "meta_mean_motion_dot": 9.89e-06,
        "meta_mean_motion_ddot": 0,
        "tle_line1": "1 33650U 99025DEK 25333.22411227  .00000989  00000+0  77422-3 0  9999",
        "tle_line2": "2 33650  98.9878 138.7642 0150501 115.9177 245.7581 13.89153147686219"
      },
      "geometry": {
        "type": "Point",
        "coordinates": [
          -61.99416243464998,
          -68.5279272841979
        ]
      }
    }
  ]
}